EUTELSAT 117 WEST B     
1 41589U 16038B   22201.63115799 -.00000016  00000+0  00000+0 0  9999
2 41589   0.0088 209.6549 0000160 238.4940 320.4503  1.00272037 22358
BRISAT                  
1 41591U 16039A   22201.36502024 -.00000201  00000+0  00000+0 0  9990
2 41591   0.0165  50.0073 0001837  67.0779 102.9439  1.00272395 22296
ECHOSTAR 18             
1 41592U 16039B   22201.35533418 -.00000287  00000+0  00000+0 0  9995
2 41592   0.0194  64.0231 0001523  60.1741 240.4532  1.00272382 22305
CARTOSAT-2C             
1 41599U 16040A   22202.19853873  .00003783  00000+0  18264-3 0  9995
2 41599  97.4847 261.5035 0014952  68.2428  17.6950 15.19186410337054
GHGSAT-D                
1 41602U 16040D   22202.13655015  .00007410  00000+0  28131-3 0  9997
2 41602  97.2045 247.0628 0008820  27.6124 332.5582 15.27078762337805
LAPAN-A3                
1 41603U 16040E   22202.18232978  .00001529  00000+0  72261-4 0  9991
2 41603  97.2040 237.7385 0014433  47.0501 353.5151 15.20756587337164
BIROS                   
1 41604U 16040F   22202.13301503  .00004206  00000+0  17331-3 0  9999
2 41604  97.2086 245.2728 0012119  23.0275 337.1504 15.24553801337596
M3MSAT                  
1 41605U 16040G   22201.67788607  .00004635  00000+0  19444-3 0  9995
2 41605  97.2079 242.7841 0012478  39.7511 320.4638 15.23892274337392
SWAYAM                  
1 41607U 16040J   22201.66881031  .00017552  00000+0  55420-3 0  9997
2 41607  97.2131 251.5433 0010630  13.4983 346.6541 15.32839256337864
FLOCK 2P-9              
1 41610U 16040M   22201.68630652  .00028054  00000+0  78099-3 0  9990
2 41610  97.2280 259.2932 0007521 352.4091   7.7038 15.36750083338156
FLOCK 2P-8              
1 41613U 16040Q   22202.15780455  .00027708  00000+0  79638-3 0  9998
2 41613  97.2337 260.7608 0007582 355.9790   4.1392 15.35753326338381
FLOCK 2P-3              
1 41618U 16040V   22201.70945963  .00027414  00000+0  77203-3 0  9990
2 41618  97.2362 260.8991 0007482   5.1281 355.0039 15.36394536338323
BEESAT-4                
1 41619U 16040W   22201.69872339  .00015832  00000+0  51445-3 0  9996
2 41619  97.2145 251.4524 0008982   9.7765 350.3651 15.31957234325817
