[{
    "OBJECT_NAME": "EUTELSAT 117 WEST B",
    "OBJECT_ID": "2016-038B",
    "EPOCH": "2022-07-20T15:08:52.050336",
    "MEAN_MOTION": 1.00272037,
    "ECCENTRICITY": 1.6e-5,
    "INCLINATION": 0.0088,
    "RA_OF_ASC_NODE": 209.6549,
    "ARG_OF_PERICENTER": 238.494,
    "MEAN_ANOMALY": 320.4503,
    "EPHEMERIS_TYPE": 0,
    "CLASSIFICATION_TYPE": "U",
    "NORAD_CAT_ID": 41589,
    "ELEMENT_SET_NO": 999,
    "REV_AT_EPOCH": 2235,
    "BSTAR": 0,
    "MEAN_MOTION_DOT": -1.6e-7,
    "MEAN_MOTION_DDOT": 0
},{
    "OBJECT_NAME": "BRISAT",
    "OBJECT_ID": "2016-039A",
    "EPOCH": "2022-07-20T08:45:37.748736",
    "MEAN_MOTION": 1.00272395,
    "ECCENTRICITY": 0.0001837,
    "INCLINATION": 0.0165,
    "RA_OF_ASC_NODE": 50.0073,
    "ARG_OF_PERICENTER": 67.0779,
    "MEAN_ANOMALY": 102.9439,
    "EPHEMERIS_TYPE": 0,
    "CLASSIFICATION_TYPE": "U",
    "NORAD_CAT_ID": 41591,
    "ELEMENT_SET_NO": 999,
    "REV_AT_EPOCH": 2229,
    "BSTAR": 0,
    "MEAN_MOTION_DOT": -2.01e-6,
    "MEAN_MOTION_DDOT": 0
},{
    "OBJECT_NAME": "ECHOSTAR 18",
    "OBJECT_ID": "2016-039B",
    "EPOCH": "2022-07-20T08:31:40.873152",
    "MEAN_MOTION": 1.00272382,
    "ECCENTRICITY": 0.0001523,
    "INCLINATION": 0.0194,
    "RA_OF_ASC_NODE": 64.0231,
    "ARG_OF_PERICENTER": 60.1741,
    "MEAN_ANOMALY": 240.4532,
    "EPHEMERIS_TYPE": 0,
    "CLASSIFICATION_TYPE": "U",
    "NORAD_CAT_ID": 41592,
    "ELEMENT_SET_NO": 999,
    "REV_AT_EPOCH": 2230,
    "BSTAR": 0,
    "MEAN_MOTION_DOT": -2.87e-6,
    "MEAN_MOTION_DDOT": 0
},{
    "OBJECT_NAME": "CARTOSAT-2C",
    "OBJECT_ID": "2016-040A",
    "EPOCH": "2022-07-21T04:45:53.746272",
    "MEAN_MOTION": 15.1918641,
    "ECCENTRICITY": 0.0014952,
    "INCLINATION": 97.4847,
    "RA_OF_ASC_NODE": 261.5035,
    "ARG_OF_PERICENTER": 68.2428,
    "MEAN_ANOMALY": 17.695,
    "EPHEMERIS_TYPE": 0,
    "CLASSIFICATION_TYPE": "U",
    "NORAD_CAT_ID": 41599,
    "ELEMENT_SET_NO": 999,
    "REV_AT_EPOCH": 33705,
    "BSTAR": 0.00018264,
    "MEAN_MOTION_DOT": 3.783e-5,
    "MEAN_MOTION_DDOT": 0
},{
    "OBJECT_NAME": "GHGSAT-D",
    "OBJECT_ID": "2016-040D",
    "EPOCH": "2022-07-21T03:16:37.932960",
    "MEAN_MOTION": 15.27078762,
    "ECCENTRICITY": 0.000882,
    "INCLINATION": 97.2045,
    "RA_OF_ASC_NODE": 247.0628,
    "ARG_OF_PERICENTER": 27.6124,
    "MEAN_ANOMALY": 332.5582,
    "EPHEMERIS_TYPE": 0,
    "CLASSIFICATION_TYPE": "U",
    "NORAD_CAT_ID": 41602,
    "ELEMENT_SET_NO": 999,
    "REV_AT_EPOCH": 33780,
    "BSTAR": 0.00028131,
    "MEAN_MOTION_DOT": 7.41e-5,
    "MEAN_MOTION_DDOT": 0
},{
    "OBJECT_NAME": "LAPAN-A3",
    "OBJECT_ID": "2016-040E",
    "EPOCH": "2022-07-21T04:22:33.292992",
    "MEAN_MOTION": 15.20756587,
    "ECCENTRICITY": 0.0014433,
    "INCLINATION": 97.204,
    "RA_OF_ASC_NODE": 237.7385,
    "ARG_OF_PERICENTER": 47.0501,
    "MEAN_ANOMALY": 353.5151,
    "EPHEMERIS_TYPE": 0,
    "CLASSIFICATION_TYPE": "U",
    "NORAD_CAT_ID": 41603,
    "ELEMENT_SET_NO": 999,
    "REV_AT_EPOCH": 33716,
    "BSTAR": 7.2261e-5,
    "MEAN_MOTION_DOT": 1.529e-5,
    "MEAN_MOTION_DDOT": 0
},{
    "OBJECT_NAME": "BIROS",
    "OBJECT_ID": "2016-040F",
    "EPOCH": "2022-07-21T03:11:32.498592",
    "MEAN_MOTION": 15.24553801,
    "ECCENTRICITY": 0.0012119,
    "INCLINATION": 97.2086,
    "RA_OF_ASC_NODE": 245.2728,
    "ARG_OF_PERICENTER": 23.0275,
    "MEAN_ANOMALY": 337.1504,
    "EPHEMERIS_TYPE": 0,
    "CLASSIFICATION_TYPE": "U",
    "NORAD_CAT_ID": 41604,
    "ELEMENT_SET_NO": 999,
    "REV_AT_EPOCH": 33759,
    "BSTAR": 0.00017331,
    "MEAN_MOTION_DOT": 4.206e-5,
    "MEAN_MOTION_DDOT": 0
},{
    "OBJECT_NAME": "M3MSAT",
    "OBJECT_ID": "2016-040G",
    "EPOCH": "2022-07-20T16:16:09.356448",
    "MEAN_MOTION": 15.23892274,
    "ECCENTRICITY": 0.0012478,
    "INCLINATION": 97.2079,
    "RA_OF_ASC_NODE": 242.7841,
    "ARG_OF_PERICENTER": 39.7511,
    "MEAN_ANOMALY": 320.4638,
    "EPHEMERIS_TYPE": 0,
    "CLASSIFICATION_TYPE": "U",
    "NORAD_CAT_ID": 41605,
    "ELEMENT_SET_NO": 999,
    "REV_AT_EPOCH": 33739,
    "BSTAR": 0.00019444,
    "MEAN_MOTION_DOT": 4.635e-5,
    "MEAN_MOTION_DDOT": 0
},{
    "OBJECT_NAME": "SWAYAM",
    "OBJECT_ID": "2016-040J",
    "EPOCH": "2022-07-20T16:03:05.210784",
    "MEAN_MOTION": 15.32839256,
    "ECCENTRICITY": 0.001063,
    "INCLINATION": 97.2131,
    "RA_OF_ASC_NODE": 251.5433,
    "ARG_OF_PERICENTER": 13.4983,
    "MEAN_ANOMALY": 346.6541,
    "EPHEMERIS_TYPE": 0,
    "CLASSIFICATION_TYPE": "U",
    "NORAD_CAT_ID": 41607,
    "ELEMENT_SET_NO": 999,
    "REV_AT_EPOCH": 33786,
    "BSTAR": 0.0005542,
    "MEAN_MOTION_DOT": 0.00017552,
    "MEAN_MOTION_DDOT": 0
},{
    "OBJECT_NAME": "FLOCK 2P-9",
    "OBJECT_ID": "2016-040M",
    "EPOCH": "2022-07-20T16:28:16.883328",
    "MEAN_MOTION": 15.36750083,
    "ECCENTRICITY": 0.0007521,
    "INCLINATION": 97.228,
    "RA_OF_ASC_NODE": 259.2932,
    "ARG_OF_PERICENTER": 352.4091,
    "MEAN_ANOMALY": 7.7038,
    "EPHEMERIS_TYPE": 0,
    "CLASSIFICATION_TYPE": "U",
    "NORAD_CAT_ID": 41610,
    "ELEMENT_SET_NO": 999,
    "REV_AT_EPOCH": 33815,
    "BSTAR": 0.00078099,
    "MEAN_MOTION_DOT": 0.00028054,
    "MEAN_MOTION_DDOT": 0
},{
    "OBJECT_NAME": "FLOCK 2P-8",
    "OBJECT_ID": "2016-040Q",
    "EPOCH": "2022-07-21T03:47:14.313120",
    "MEAN_MOTION": 15.35753326,
    "ECCENTRICITY": 0.0007582,
    "INCLINATION": 97.2337,
    "RA_OF_ASC_NODE": 260.7608,
    "ARG_OF_PERICENTER": 355.979,
    "MEAN_ANOMALY": 4.1392,
    "EPHEMERIS_TYPE": 0,
    "CLASSIFICATION_TYPE": "U",
    "NORAD_CAT_ID": 41613,
    "ELEMENT_SET_NO": 999,
    "REV_AT_EPOCH": 33838,
    "BSTAR": 0.00079638,
    "MEAN_MOTION_DOT": 0.00027708,
    "MEAN_MOTION_DDOT": 0
},{
    "OBJECT_NAME": "FLOCK 2P-3",
    "OBJECT_ID": "2016-040V",
    "EPOCH": "2022-07-20T17:01:37.312032",
    "MEAN_MOTION": 15.36394536,
    "ECCENTRICITY": 0.0007482,
    "INCLINATION": 97.2362,
    "RA_OF_ASC_NODE": 260.8991,
    "ARG_OF_PERICENTER": 5.1281,
    "MEAN_ANOMALY": 355.0039,
    "EPHEMERIS_TYPE": 0,
    "CLASSIFICATION_TYPE": "U",
    "NORAD_CAT_ID": 41618,
    "ELEMENT_SET_NO": 999,
    "REV_AT_EPOCH": 33832,
    "BSTAR": 0.00077203,
    "MEAN_MOTION_DOT": 0.00027414,
    "MEAN_MOTION_DDOT": 0
},{
    "OBJECT_NAME": "BEESAT-4",
    "OBJECT_ID": "2016-040W",
    "EPOCH": "2022-07-20T16:46:09.700896",
    "MEAN_MOTION": 15.31957234,
    "ECCENTRICITY": 0.0008982,
    "INCLINATION": 97.2145,
    "RA_OF_ASC_NODE": 251.4524,
    "ARG_OF_PERICENTER": 9.7765,
    "MEAN_ANOMALY": 350.3651,
    "EPHEMERIS_TYPE": 0,
    "CLASSIFICATION_TYPE": "U",
    "NORAD_CAT_ID": 41619,
    "ELEMENT_SET_NO": 999,
    "REV_AT_EPOCH": 32581,
    "BSTAR": 0.00051445,
    "MEAN_MOTION_DOT": 0.00015832,
    "MEAN_MOTION_DDOT": 0
}]
